{
  "type": "FeatureCollection",
  "features": [
    {
      "type": "Feature",
      "properties": {
        "norad_id": 22675,
        "name": "COSMOS 2251",
        "group": "cosmos-2251-debris",
        "lat": -56.89007664337193,
        "lon": 147.91705706661784,
        "alt_km": 801.3100903468076,
        "timestamp": "2025-12-20T09:36:02.041449+00:00",
        "meta_object_name": "COSMOS 2251",
        "meta_object_id": "1993-036A",
        "meta_epoch": "2025-12-19T05:40:39.578880",
        "meta_mean_motion": 14.33206643,
        "meta_eccentricity": 0.0024218,
        "meta_inclination": 74.0399,
        "meta_ra_of_asc_node": 304.0128,
        "meta_arg_of_pericenter": 24.4587,
        "meta_mean_anomaly": 335.7708,
        "meta_ephemeris_type": 0,
        "meta_classification_type": "U",
        "meta_norad_cat_id": 22675,
        "meta_element_set_no": 999,
        "meta_rev_at_epoch": 69866,
        "meta_bstar": 3.4708e-05,
        "meta_mean_motion_dot": 7e-07,
        "meta_mean_motion_ddot": 0,
        "tle_line1": "1 22675U 93036A   25353.23656920  .00000070  00000+0  34708-4 0  9996",
        "tle_line2": "2 22675  74.0399 304.0128 0024218  24.4587 335.7708 14.33206643698661"
      },
      "geometry": {
        "type": "Point",
        "coordinates": [
          147.91705706661784,
          -56.89007664337193
        ]
      }
    },
    {
      "type": "Feature",
      "properties": {
        "norad_id": 33757,
        "name": "COSMOS 2251 DEB",
        "group": "cosmos-2251-debris",
        "lat": -72.27225768453447,
        "lon": -166.81923799066197,
        "alt_km": 784.400754266725,
        "timestamp": "2025-12-20T09:36:02.041473+00:00",
        "meta_object_name": "COSMOS 2251 DEB",
        "meta_object_id": "1993-036E",
        "meta_epoch": "2025-12-20T00:18:50.798016",
        "meta_mean_motion": 14.32582715,
        "meta_eccentricity": 0.0015506,
        "meta_inclination": 74.0373,
        "meta_ra_of_asc_node": 310.3314,
        "meta_arg_of_pericenter": 322.4248,
        "meta_mean_anomaly": 105.175,
        "meta_ephemeris_type": 0,
        "meta_classification_type": "U",
        "meta_norad_cat_id": 33757,
        "meta_element_set_no": 999,
        "meta_rev_at_epoch": 88100,
        "meta_bstar": 2.9188e-05,
        "meta_mean_motion_dot": 5.3e-07,
        "meta_mean_motion_ddot": 0,
        "tle_line1": "1 33757U 93036E   25354.01308794  .00000053  00000+0  29188-4 0  9996",
        "tle_line2": "2 33757  74.0373 310.3314 0015506 322.4248 105.1750 14.32582715881002"
      },
      "geometry": {
        "type": "Point",
        "coordinates": [
          -166.81923799066197,
          -72.27225768453447
        ]
      }
    },
    {
      "type": "Feature",
      "properties": {
        "norad_id": 33758,
        "name": "COSMOS 2251 DEB",
        "group": "cosmos-2251-debris",
        "lat": 11.850324000277105,
        "lon": -155.95306732851313,
        "alt_km": 724.5705755409326,
        "timestamp": "2025-12-20T09:36:02.041488+00:00",
        "meta_object_name": "COSMOS 2251 DEB",
        "meta_object_id": "1993-036F",
        "meta_epoch": "2025-12-20T00:18:43.302816",
        "meta_mean_motion": 14.51633517,
        "meta_eccentricity": 0.0017242,
        "meta_inclination": 74.0266,
        "meta_ra_of_asc_node": 201.3301,
        "meta_arg_of_pericenter": 267.56,
        "meta_mean_anomaly": 242.9854,
        "meta_ephemeris_type": 0,
        "meta_classification_type": "U",
        "meta_norad_cat_id": 33758,
        "meta_element_set_no": 999,
        "meta_rev_at_epoch": 88410,
        "meta_bstar": 0.00049759,
        "meta_mean_motion_dot": 1.971e-05,
        "meta_mean_motion_ddot": 0,
        "tle_line1": "1 33758U 93036F   25354.01300119  .00001971  00000+0  49759-3 0  9995",
        "tle_line2": "2 33758  74.0266 201.3301 0017242 267.5600 242.9854 14.51633517884106"
      },
      "geometry": {
        "type": "Point",
        "coordinates": [
          -155.95306732851313,
          11.850324000277105
        ]
      }
    },
    {
      "type": "Feature",
      "properties": {
        "norad_id": 33760,
        "name": "COSMOS 2251 DEB",
        "group": "cosmos-2251-debris",
        "lat": -51.71264423840376,
        "lon": 108.66501007229549,
        "alt_km": 788.5666154373921,
        "timestamp": "2025-12-20T09:36:02.041500+00:00",
        "meta_object_name": "COSMOS 2251 DEB",
        "meta_object_id": "1993-036H",
        "meta_epoch": "2025-12-20T04:14:12.674976",
        "meta_mean_motion": 14.35677132,
        "meta_eccentricity": 0.0020233,
        "meta_inclination": 74.0322,
        "meta_ra_of_asc_node": 267.8082,
        "meta_arg_of_pericenter": 4.4816,
        "meta_mean_anomaly": 155.7374,
        "meta_ephemeris_type": 0,
        "meta_classification_type": "U",
        "meta_norad_cat_id": 33760,
        "meta_element_set_no": 999,
        "meta_rev_at_epoch": 88231,
        "meta_bstar": 7.5618e-05,
        "meta_mean_motion_dot": 1.92e-06,
        "meta_mean_motion_ddot": 0,
        "tle_line1": "1 33760U 93036H   25354.17653559  .00000192  00000+0  75618-4 0  9992",
        "tle_line2": "2 33760  74.0322 267.8082 0020233   4.4816 155.7374 14.35677132882318"
      },
      "geometry": {
        "type": "Point",
        "coordinates": [
          108.66501007229549,
          -51.71264423840376
        ]
      }
    },
    {
      "type": "Feature",
      "properties": {
        "norad_id": 33761,
        "name": "COSMOS 2251 DEB",
        "group": "cosmos-2251-debris",
        "lat": -6.487918979107787,
        "lon": -123.91447601556955,
        "alt_km": 740.1142646797798,
        "timestamp": "2025-12-20T09:36:02.041512+00:00",
        "meta_object_name": "COSMOS 2251 DEB",
        "meta_object_id": "1993-036J",
        "meta_epoch": "2025-12-19T11:09:18.014112",
        "meta_mean_motion": 14.42563129,
        "meta_eccentricity": 0.0023215,
        "meta_inclination": 74.0354,
        "meta_ra_of_asc_node": 239.6857,
        "meta_arg_of_pericenter": 319.002,
        "meta_mean_anomaly": 219.2979,
        "meta_ephemeris_type": 0,
        "meta_classification_type": "U",
        "meta_norad_cat_id": 33761,
        "meta_element_set_no": 999,
        "meta_rev_at_epoch": 88331,
        "meta_bstar": 0.00029325,
        "meta_mean_motion_dot": 9.5e-06,
        "meta_mean_motion_ddot": 0,
        "tle_line1": "1 33761U 93036J   25353.46479183  .00000950  00000+0  29325-3 0  9998",
        "tle_line2": "2 33761  74.0354 239.6857 0023215 319.0020 219.2979 14.42563129883312"
      },
      "geometry": {
        "type": "Point",
        "coordinates": [
          -123.91447601556955,
          -6.487918979107787
        ]
      }
    },
    {
      "type": "Feature",
      "properties": {
        "norad_id": 33762,
        "name": "COSMOS 2251 DEB",
        "group": "cosmos-2251-debris",
        "lat": 58.44258003775593,
        "lon": 88.25438257197543,
        "alt_km": 779.2972217452061,
        "timestamp": "2025-12-20T09:36:02.041524+00:00",
        "meta_object_name": "COSMOS 2251 DEB",
        "meta_object_id": "1993-036K",
        "meta_epoch": "2025-12-20T04:19:17.253120",
        "meta_mean_motion": 14.33665844,
        "meta_eccentricity": 0.0015314,
        "meta_inclination": 74.042,
        "meta_ra_of_asc_node": 296.4238,
        "meta_arg_of_pericenter": 356.0388,
        "meta_mean_anomaly": 66.5343,
        "meta_ephemeris_type": 0,
        "meta_classification_type": "U",
        "meta_norad_cat_id": 33762,
        "meta_element_set_no": 999,
        "meta_rev_at_epoch": 88154,
        "meta_bstar": 3.7013e-05,
        "meta_mean_motion_dot": 7.7e-07,
        "meta_mean_motion_ddot": 0,
        "tle_line1": "1 33762U 93036K   25354.18006080  .00000077  00000+0  37013-4 0  9995",
        "tle_line2": "2 33762  74.0420 296.4238 0015314 356.0388  66.5343 14.33665844881548"
      },
      "geometry": {
        "type": "Point",
        "coordinates": [
          88.25438257197543,
          58.44258003775593
        ]
      }
    },
    {
      "type": "Feature",
      "properties": {
        "norad_id": 33764,
        "name": "COSMOS 2251 DEB",
        "group": "cosmos-2251-debris",
        "lat": 54.92418964929212,
        "lon": -77.42537438495258,
        "alt_km": 770.733211481951,
        "timestamp": "2025-12-20T09:36:02.041535+00:00",
        "meta_object_name": "COSMOS 2251 DEB",
        "meta_object_id": "1993-036M",
        "meta_epoch": "2025-12-20T02:58:47.279712",
        "meta_mean_motion": 14.3952464,
        "meta_eccentricity": 0.0023611,
        "meta_inclination": 74.0335,
        "meta_ra_of_asc_node": 259.0217,
        "meta_arg_of_pericenter": 223.4055,
        "meta_mean_anomaly": 206.0359,
        "meta_ephemeris_type": 0,
        "meta_classification_type": "U",
        "meta_norad_cat_id": 33764,
        "meta_element_set_no": 999,
        "meta_rev_at_epoch": 88263,
        "meta_bstar": 0.00021755,
        "meta_mean_motion_dot": 6.54e-06,
        "meta_mean_motion_ddot": 0,
        "tle_line1": "1 33764U 93036M   25354.12415833  .00000654  00000+0  21755-3 0  9997",
        "tle_line2": "2 33764  74.0335 259.0217 0023611 223.4055 206.0359 14.39524640882637"
      },
      "geometry": {
        "type": "Point",
        "coordinates": [
          -77.42537438495258,
          54.92418964929212
        ]
      }
    }
  ]
}